{
"type": "FeatureCollection",
"features": [
{ "type": "Feature", "properties": { "id": 1, "Name_AR": "القدس", "Name_EN": "Jerusalem" }, "geometry": { "type": "Point", "coordinates": [ 35.235422697154796, 31.777984183688513 ] } },
{ "type": "Feature", "properties": { "id": 2, "Name_AR": "بيت لحم", "Name_EN": "Bethlehem" }, "geometry": { "type": "Point", "coordinates": [ 35.207495704255876, 31.70434820613681 ] } },
{ "type": "Feature", "properties": { "id": 3, "Name_AR": "رام الله", "Name_EN": "Ramallah" }, "geometry": { "type": "Point", "coordinates": [ 35.195481262039678, 31.902721035204848 ] } },
{ "type": "Feature", "properties": { "id": 4, "Name_AR": "الخليل", "Name_EN": "Hebron" }, "geometry": { "type": "Point", "coordinates": [ 35.094170396247954, 31.528598539914661 ] } },
{ "type": "Feature", "properties": { "id": 5, "Name_AR": "نابلس", "Name_EN": "Nablus" }, "geometry": { "type": "Point", "coordinates": [ 35.278062709015508, 32.210690461236013 ] } },
{ "type": "Feature", "properties": { "id": 6, "Name_AR": "سلفيت", "Name_EN": "Salfit" }, "geometry": { "type": "Point", "coordinates": [ 35.180932789867413, 32.084342093055227 ] } },
{ "type": "Feature", "properties": { "id": 7, "Name_AR": "جنين", "Name_EN": "Jenin" }, "geometry": { "type": "Point", "coordinates": [ 35.299658727789591, 32.461061706656764 ] } },
{ "type": "Feature", "properties": { "id": 8, "Name_AR": "غزة", "Name_EN": "Gaza" }, "geometry": { "type": "Point", "coordinates": [ 34.456236342310106, 31.511690271389551 ] } },
{ "type": "Feature", "properties": { "id": 9, "Name_AR": "بئر السبع", "Name_EN": "Bir Al-Saba'" }, "geometry": { "type": "Point", "coordinates": [ 34.796762264778614, 31.245825515723578 ] } },
{ "type": "Feature", "properties": { "id": 10, "Name_AR": "خان يونس", "Name_EN": "Khan Yunis" }, "geometry": { "type": "Point", "coordinates": [ 34.306264279528044, 31.343398021747678 ] } },
{ "type": "Feature", "properties": { "id": 11, "Name_AR": "رفح", "Name_EN": "Rafah" }, "geometry": { "type": "Point", "coordinates": [ 34.255274471758923, 31.274708867341005 ] } },
{ "type": "Feature", "properties": { "id": 12, "Name_AR": "اللد", "Name_EN": "Lydd" }, "geometry": { "type": "Point", "coordinates": [ 34.888457194419885, 31.948838673617558 ] } },
{ "type": "Feature", "properties": { "id": 13, "Name_AR": "الرملة", "Name_EN": "Ramla" }, "geometry": { "type": "Point", "coordinates": [ 34.862259472141609, 31.927063695698561 ] } },
{ "type": "Feature", "properties": { "id": 14, "Name_AR": "يافا", "Name_EN": "Yafa" }, "geometry": { "type": "Point", "coordinates": [ 34.750739791096777, 32.044390830692507 ] } },
{ "type": "Feature", "properties": { "id": 15, "Name_AR": "طولكرم", "Name_EN": "Tulkarm" }, "geometry": { "type": "Point", "coordinates": [ 35.028413402255225, 32.30887618117859 ] } },
{ "type": "Feature", "properties": { "id": 16, "Name_AR": "الناصرة", "Name_EN": "Nazareth" }, "geometry": { "type": "Point", "coordinates": [ 35.305779751004607, 32.706132945411561 ] } },
{ "type": "Feature", "properties": { "id": 17, "Name_AR": "أم الفحم", "Name_EN": "Umm Al-Fahm" }, "geometry": { "type": "Point", "coordinates": [ 35.153666082441745, 32.515769443775469 ] } },
{ "type": "Feature", "properties": { "id": 18, "Name_AR": "حيفا", "Name_EN": "Haifa" }, "geometry": { "type": "Point", "coordinates": [ 34.996511827776104, 32.818321670075228 ] } },
{ "type": "Feature", "properties": { "id": 19, "Name_AR": "عكا", "Name_EN": "Acre" }, "geometry": { "type": "Point", "coordinates": [ 35.075464076067739, 32.928198530494832 ] } },
{ "type": "Feature", "properties": { "id": 20, "Name_AR": "طبريا", "Name_EN": "Tiberias" }, "geometry": { "type": "Point", "coordinates": [ 35.532544445282646, 32.79282754004781 ] } },
{ "type": "Feature", "properties": { "id": 21, "Name_AR": "أريحا", "Name_EN": "Jericho" }, "geometry": { "type": "Point", "coordinates": [ 35.460677691028096, 31.855647416076298 ] } },
{ "type": "Feature", "properties": { "id": 22, "Name_AR": "قلقيلية", "Name_EN": "Qalqilya" }, "geometry": { "type": "Point", "coordinates": [ 34.969338285937049, 32.186468052844887 ] } },
{ "type": "Feature", "properties": { "id": 23, "Name_AR": "رهط", "Name_EN": "Rahat" }, "geometry": { "type": "Point", "coordinates": [ 34.757058499357846, 31.390551120027272 ] } },
{ "type": "Feature", "properties": { "id": 24, "Name_AR": "جديدة المكر", "Name_EN": "Judeida Al-Makr" }, "geometry": { "type": "Point", "coordinates": [ 35.146549542035167, 32.92921066545771 ] } },
{ "type": "Feature", "properties": { "id": 25, "Name_AR": "مجد الكروم", "Name_EN": "Majd Al-Krum" }, "geometry": { "type": "Point", "coordinates": [ 35.257125332682875, 32.921719696982983 ] } },
{ "type": "Feature", "properties": { "id": 26, "Name_AR": "طمرة", "Name_EN": "Tamra" }, "geometry": { "type": "Point", "coordinates": [ 35.197701728653698, 32.852992468717829 ] } },
{ "type": "Feature", "properties": { "id": 27, "Name_AR": "دير حنا", "Name_EN": "Deir Hanna" }, "geometry": { "type": "Point", "coordinates": [ 35.368541727889912, 32.861681969207169 ] } },
{ "type": "Feature", "properties": { "id": 28, "Name_AR": "شقيب السلام", "Name_EN": "Shqeib Al-Salam" }, "geometry": { "type": "Point", "coordinates": [ 34.839348561741829, 31.199971333933313 ] } },
{ "type": "Feature", "properties": { "id": 29, "Name_AR": "دبورية", "Name_EN": "Daburiyya" }, "geometry": { "type": "Point", "coordinates": [ 35.371925047486194, 32.692004598302091 ] } },
{ "type": "Feature", "properties": { "id": 30, "Name_AR": "نحف", "Name_EN": "Nahf" }, "geometry": { "type": "Point", "coordinates": [ 35.317616525594403, 32.9342749831752 ] } },
{ "type": "Feature", "properties": { "id": 31, "Name_AR": "كفر كنا", "Name_EN": "Kafr Kanna" }, "geometry": { "type": "Point", "coordinates": [ 35.343142243712911, 32.744011871506878 ] } },
{ "type": "Feature", "properties": { "id": 32, "Name_AR": "شفا عمرو", "Name_EN": "Shefa 'Amr" }, "geometry": { "type": "Point", "coordinates": [ 35.173877566312619, 32.802852651805068 ] } },
{ "type": "Feature", "properties": { "id": 32, "Name_AR": "جلجولية", "Name_EN": "Jaljulya" }, "geometry": { "type": "Point", "coordinates": [ 34.955009732041276, 32.151724738635778 ] } },
{ "type": "Feature", "properties": { "id": 33, "Name_AR": "عرابة", "Name_EN": "Arraba" }, "geometry": { "type": "Point", "coordinates": [ 35.336681192737373, 32.84862813384072 ] } },
{ "type": "Feature", "properties": { "id": 34, "Name_AR": "كفر مندا", "Name_EN": "Kafr Manda" }, "geometry": { "type": "Point", "coordinates": [ 35.260491893515649, 32.810912471931765 ] } },
{ "type": "Feature", "properties": { "id": 36, "Name_AR": "كفر قاسم", "Name_EN": "Kafr Qasem" }, "geometry": { "type": "Point", "coordinates": [ 34.974588027840667, 32.113215446996634 ] } },
{ "type": "Feature", "properties": { "id": 37, "Name_AR": "البيرة", "Name_EN": "Al Bireh" }, "geometry": { "type": "Point", "coordinates": [ 35.212367632118081, 31.900752705309618 ] } }
]
}
